GLOBALSTAR M067         
1 32263U 07048A   25138.71055795 -.00000082  00000+0  11720-3 0  9997
2 32263  51.9700 122.1816 0001015 292.8077 238.6292 12.40672422805828
GLOBALSTAR M070         
1 32264U 07048B   25139.22857999 -.00000072  00000+0  17893-3 0  9997
2 32264  51.9741 216.7239 0000510 116.4437 279.1006 12.62318223810990
GLOBALSTAR M066         
1 32265U 07048C   25138.68337053 -.00000087  00000+0  70170-4 0  9995
2 32265  51.9623 110.8664 0001398 178.6865 352.8354 12.35103834811655
GLOBALSTAR M068         
1 32266U 07048D   25139.12296049 -.00000098  00000+0  34849-4 0  9990
2 32266  51.9909  30.8533 0001737  69.3071  81.4243 12.62822997814171
GLOBALSTAR M079         
1 37188U 10054A   25139.18412272 -.00000081  00000+0  12752-3 0  9993
2 37188  52.0033 228.0751 0000536 167.8751 202.2076 12.62264562673478
GLOBALSTAR M074         
1 37189U 10054B   25139.52828544 -.00000086  00000+0  97436-4 0  9993
2 37189  52.0010 226.3558 0000284 125.1521 248.3982 12.62269718673512
GLOBALSTAR M076         
1 37190U 10054C   25138.95577251 -.00000089  00000+0  80819-4 0  9997
2 37190  52.0022 228.2655 0000292 169.8832   1.6335 12.62262734673080
GLOBALSTAR M077         
1 37191U 10054D   25138.62511962 -.00000096  00000+0  42165-4 0  9999
2 37191  52.0050 186.1218 0000190 147.4196  20.2693 12.62268247673417
